start=new Date('2022-02-15T00:00:00.000Z').valueOf();
sats=[{"BSTAR":"0.00011824000000","MEAN_MOTION_DDOT":"0.0000000000000","OBJECT_TYPE":"PAYLOAD","CENTER_NAME":"EARTH","SEMIMAJOR_AXIS":"6925.336","PERIOD":"95.592","OBJECT_NAME":"STARLINK-2089","FILE":"3300727","MEAN_MOTION_DOT":"0.00001480","PERIAPSIS":"546.068","TLE_LINE1":"1 47372U 21005Z   22045.81210869  .00001480  00000-0  11824-3 0  9991","REV_AT_EPOCH":"5945","LAUNCH_DATE":"2021-01-20","OBJECT_ID":"2021-005Z","RCS_SIZE":"LARGE","ECCENTRICITY":"0.00016360","CLASSIFICATION_TYPE":"U","NORAD_CAT_ID":"47372","EPOCH":"2022-02-14T19:29:26.190816","COUNTRY_CODE":"US","EPHEMERIS_TYPE":"0","TIME_SYSTEM":"UTC","MEAN_ANOMALY":"291.2616","SITE":"AFETR","APOAPSIS":"548.334","MEAN_MOTION":"15.06404072","REF_FRAME":"TEME","DECAY_DATE":null,"TLE_LINE2":"2 47372  53.0531 237.9932 0001636  68.8548 291.2616 15.06404072 59451","GP_ID":"195967042","RA_OF_ASC_NODE":"237.9932","MEAN_ELEMENT_THEORY":"SGP4","INCLINATION":"53.0531","ARG_OF_PERICENTER":"68.8548","ELEMENT_SET_NO":"999"},{"PERIOD":"95.593","SEMIMAJOR_AXIS":"6925.376","CENTER_NAME":"EARTH","OBJECT_TYPE":"PAYLOAD","MEAN_MOTION_DDOT":"0.0000000000000","FILE":"3300727","OBJECT_NAME":"STARLINK-2092","BSTAR":"0.00002818600000","ECCENTRICITY":"0.00018200","RCS_SIZE":"LARGE","OBJECT_ID":"2021-005AA","PERIAPSIS":"545.980","MEAN_MOTION_DOT":"0.00000138","LAUNCH_DATE":"2021-01-20","REV_AT_EPOCH":"5938","TLE_LINE1":"1 47373U 21005AA  22045.77758259  .00000138  00000-0  28186-4 0  9996","MEAN_ANOMALY":"292.4170","COUNTRY_CODE":"US","TIME_SYSTEM":"UTC","EPHEMERIS_TYPE":"0","EPOCH":"2022-02-14T18:39:43.135776","CLASSIFICATION_TYPE":"U","NORAD_CAT_ID":"47373","ARG_OF_PERICENTER":"67.7012","INCLINATION":"53.0536","MEAN_ELEMENT_THEORY":"SGP4","ELEMENT_SET_NO":"999","MEAN_MOTION":"15.06391133","REF_FRAME":"TEME","APOAPSIS":"548.501","SITE":"AFETR","GP_ID":"195967292","RA_OF_ASC_NODE":"243.1493","TLE_LINE2":"2 47373  53.0536 243.1493 0001820  67.7012 292.4170 15.06391133 59380","DECAY_DATE":null},{"MEAN_MOTION_DDOT":"0.0000000000000","SEMIMAJOR_AXIS":"6925.366","PERIOD":"95.592","CENTER_NAME":"EARTH","OBJECT_TYPE":"PAYLOAD","OBJECT_NAME":"STARLINK-2093","FILE":"3300727","BSTAR":"-0.00009045600000","RCS_SIZE":"LARGE","OBJECT_ID":"2021-005AB","ECCENTRICITY":"0.00018210","MEAN_MOTION_DOT":"-0.00001629","PERIAPSIS":"545.970","TLE_LINE1":"1 47374U 21005AB  22045.79875221 -.00001629  00000-0 -90456-4 0  9995","LAUNCH_DATE":"2021-01-20","REV_AT_EPOCH":"5938","EPHEMERIS_TYPE":"0","COUNTRY_CODE":"US","TIME_SYSTEM":"UTC","EPOCH":"2022-02-14T19:10:12.190944","MEAN_ANOMALY":"295.3220","CLASSIFICATION_TYPE":"U","NORAD_CAT_ID":"47374","INCLINATION":"53.0468","MEAN_ELEMENT_THEORY":"SGP4","ARG_OF_PERICENTER":"64.7958","ELEMENT_SET_NO":"999","APOAPSIS":"548.492","SITE":"AFETR","REF_FRAME":"TEME","MEAN_MOTION":"15.06394409","DECAY_DATE":null,"RA_OF_ASC_NODE":"243.1066","GP_ID":"195966042","TLE_LINE2":"2 47374  53.0468 243.1066 0001821  64.7958 295.3220 15.06394409 59385"},{"REV_AT_EPOCH":"5938","LAUNCH_DATE":"2021-01-20","TLE_LINE1":"1 47375U 21005AC  22045.80337335  .00001345  00000-0  10917-3 0  9993","PERIAPSIS":"546.153","MEAN_MOTION_DOT":"0.00001345","ECCENTRICITY":"0.00015640","OBJECT_ID":"2021-005AC","RCS_SIZE":"LARGE","BSTAR":"0.00010917000000","FILE":"3300727","OBJECT_NAME":"STARLINK-2094","CENTER_NAME":"EARTH","OBJECT_TYPE":"PAYLOAD","PERIOD":"95.593","SEMIMAJOR_AXIS":"6925.371","MEAN_MOTION_DDOT":"0.0000000000000","TLE_LINE2":"2 47375  53.0544 243.0547 0001564  63.4281 296.6868 15.06392716 59384","RA_OF_ASC_NODE":"243.0547","GP_ID":"195966292","DECAY_DATE":null,"MEAN_MOTION":"15.06392716","REF_FRAME":"TEME","SITE":"AFETR","APOAPSIS":"548.319","ELEMENT_SET_NO":"999","ARG_OF_PERICENTER":"63.4281","MEAN_ELEMENT_THEORY":"SGP4","INCLINATION":"53.0544","NORAD_CAT_ID":"47375","CLASSIFICATION_TYPE":"U","MEAN_ANOMALY":"296.6868","EPOCH":"2022-02-14T19:16:51.457440","TIME_SYSTEM":"UTC","COUNTRY_CODE":"US","EPHEMERIS_TYPE":"0"},{"FILE":"3300727","OBJECT_NAME":"STARLINK-2096","OBJECT_TYPE":"PAYLOAD","CENTER_NAME":"EARTH","PERIOD":"95.593","SEMIMAJOR_AXIS":"6925.372","MEAN_MOTION_DDOT":"0.0000000000000","BSTAR":"-0.00006207400000","ECCENTRICITY":"0.00016990","OBJECT_ID":"2021-005AD","RCS_SIZE":"LARGE","REV_AT_EPOCH":"5938","LAUNCH_DATE":"2021-01-20","TLE_LINE1":"1 47376U 21005AD  22045.80707366 -.00001206  00000-0 -62074-4 0  9999","PERIAPSIS":"546.061","MEAN_MOTION_DOT":"-0.00001206","MEAN_ANOMALY":"291.8296","EPOCH":"2022-02-14T19:22:11.164224","EPHEMERIS_TYPE":"0","COUNTRY_CODE":"US","TIME_SYSTEM":"UTC","NORAD_CAT_ID":"47376","CLASSIFICATION_TYPE":"U","ELEMENT_SET_NO":"999","ARG_OF_PERICENTER":"68.2874","MEAN_ELEMENT_THEORY":"SGP4","INCLINATION":"53.0533","TLE_LINE2":"2 47376  53.0533 243.0362 0001699  68.2874 291.8296 15.06392232 59383","RA_OF_ASC_NODE":"243.0362","GP_ID":"195967543","DECAY_DATE":null,"MEAN_MOTION":"15.06392232","REF_FRAME":"TEME","SITE":"AFETR","APOAPSIS":"548.414"},{"CLASSIFICATION_TYPE":"U","NORAD_CAT_ID":"47377","TIME_SYSTEM":"UTC","COUNTRY_CODE":"US","EPHEMERIS_TYPE":"0","EPOCH":"2022-02-14T19:00:57.731904","MEAN_ANOMALY":"286.6771","APOAPSIS":"548.454","SITE":"AFETR","MEAN_MOTION":"15.06390304","REF_FRAME":"TEME","DECAY_DATE":null,"GP_ID":"195967793","RA_OF_ASC_NODE":"243.0907","TLE_LINE2":"2 47377  53.0566 243.0907 0001748  73.4410 286.6771 15.06390304 59382","INCLINATION":"53.0566","MEAN_ELEMENT_THEORY":"SGP4","ARG_OF_PERICENTER":"73.4410","ELEMENT_SET_NO":"999","BSTAR":"0.00011693000000","MEAN_MOTION_DDOT":"0.0000000000000","PERIOD":"95.593","SEMIMAJOR_AXIS":"6925.378","OBJECT_TYPE":"PAYLOAD","CENTER_NAME":"EARTH","OBJECT_NAME":"STARLINK-2097","FILE":"3300727","MEAN_MOTION_DOT":"0.00001460","PERIAPSIS":"546.033","TLE_LINE1":"1 47377U 21005AE  22045.79233486  .00001460  00000-0  11693-3 0  9995","LAUNCH_DATE":"2021-01-20","REV_AT_EPOCH":"5938","RCS_SIZE":"LARGE","OBJECT_ID":"2021-005AE","ECCENTRICITY":"0.00017480"},{"SEMIMAJOR_AXIS":"6925.350","PERIOD":"95.592","CENTER_NAME":"EARTH","OBJECT_TYPE":"PAYLOAD","MEAN_MOTION_DDOT":"0.0000000000000","FILE":"3300727","OBJECT_NAME":"STARLINK-2098","BSTAR":"0.00004726800000","ECCENTRICITY":"0.00013350","RCS_SIZE":"LARGE","OBJECT_ID":"2021-005AF","PERIAPSIS":"546.291","MEAN_MOTION_DOT":"0.00000423","REV_AT_EPOCH":"5993","LAUNCH_DATE":"2021-01-20","TLE_LINE1":"1 47378U 21005AF  22045.71859288  .00000423  00000-0  47268-4 0  9998","MEAN_ANOMALY":"285.0086","TIME_SYSTEM":"UTC","COUNTRY_CODE":"US","EPHEMERIS_TYPE":"0","EPOCH":"2022-02-14T17:14:46.424832","CLASSIFICATION_TYPE":"U","NORAD_CAT_ID":"47378","ARG_OF_PERICENTER":"75.1051","INCLINATION":"53.0543","MEAN_ELEMENT_THEORY":"SGP4","ELEMENT_SET_NO":"999","MEAN_MOTION":"15.06399396","REF_FRAME":"TEME","APOAPSIS":"548.140","SITE":"AFETR","GP_ID":"195966543","RA_OF_ASC_NODE":"203.4292","TLE_LINE2":"2 47378  53.0543 203.4292 0001335  75.1051 285.0086 15.06399396 59930","DECAY_DATE":null},{"EPHEMERIS_TYPE":"0","COUNTRY_CODE":"US","TIME_SYSTEM":"UTC","EPOCH":"2022-02-14T17:25:23.825280","MEAN_ANOMALY":"288.4330","NORAD_CAT_ID":"47379","CLASSIFICATION_TYPE":"U","ELEMENT_SET_NO":"999","INCLINATION":"53.0546","MEAN_ELEMENT_THEORY":"SGP4","ARG_OF_PERICENTER":"71.6805","DECAY_DATE":null,"RA_OF_ASC_NODE":"203.3859","GP_ID":"195966793","TLE_LINE2":"2 47379  53.0546 203.3859 0001343  71.6805 288.4330 15.06398962 59936","APOAPSIS":"548.147","SITE":"AFETR","REF_FRAME":"TEME","MEAN_MOTION":"15.06398962","OBJECT_NAME":"STARLINK-2099","FILE":"3300727","MEAN_MOTION_DDOT":"0.0000000000000","SEMIMAJOR_AXIS":"6925.352","PERIOD":"95.592","OBJECT_TYPE":"PAYLOAD","CENTER_NAME":"EARTH","BSTAR":"-0.00002395600000","RCS_SIZE":"LARGE","OBJECT_ID":"2021-005AG","ECCENTRICITY":"0.00013430","TLE_LINE1":"1 47379U 21005AG  22045.72597020 -.00000638  00000-0 -23956-4 0  9991","REV_AT_EPOCH":"5993","LAUNCH_DATE":"2021-01-20","MEAN_MOTION_DOT":"-0.00000638","PERIAPSIS":"546.287"},{"FILE":"3300727","OBJECT_NAME":"STARLINK-2100","SEMIMAJOR_AXIS":"6925.364","PERIOD":"95.592","CENTER_NAME":"EARTH","OBJECT_TYPE":"PAYLOAD","MEAN_MOTION_DDOT":"0.0000000000000","BSTAR":"0.00014619000000","ECCENTRICITY":"0.00015970","RCS_SIZE":"LARGE","OBJECT_ID":"2021-005AH","LAUNCH_DATE":"2021-01-20","REV_AT_EPOCH":"5980","TLE_LINE1":"1 47380U 21005AH  22045.75454252  .00001896  00000-0  14619-3 0  9995","PERIAPSIS":"546.123","MEAN_MOTION_DOT":"0.00001896","MEAN_ANOMALY":"288.2086","COUNTRY_CODE":"US","TIME_SYSTEM":"UTC","EPHEMERIS_TYPE":"0","EPOCH":"2022-02-14T18:06:32.473728","NORAD_CAT_ID":"47380","CLASSIFICATION_TYPE":"U","ELEMENT_SET_NO":"999","ARG_OF_PERICENTER":"71.9077","INCLINATION":"53.0526","MEAN_ELEMENT_THEORY":"SGP4","RA_OF_ASC_NODE":"213.2694","GP_ID":"195967043","TLE_LINE2":"2 47380  53.0526 213.2694 0001597  71.9077 288.2086 15.06394821 59800","DECAY_DATE":null,"MEAN_MOTION":"15.06394821","REF_FRAME":"TEME","APOAPSIS":"548.335","SITE":"AFETR"},{"NORAD_CAT_ID":"47381","CLASSIFICATION_TYPE":"U","MEAN_ANOMALY":"282.6836","EPHEMERIS_TYPE":"0","COUNTRY_CODE":"US","TIME_SYSTEM":"UTC","EPOCH":"2022-02-14T18:17:46.922496","GP_ID":"195967293","RA_OF_ASC_NODE":"218.2360","TLE_LINE2":"2 47381  53.0514 218.2360 0001625  77.4335 282.6836 15.06410677 59734","DECAY_DATE":null,"REF_FRAME":"TEME","MEAN_MOTION":"15.06410677","APOAPSIS":"548.306","SITE":"AFETR","ELEMENT_SET_NO":"999","ARG_OF_PERICENTER":"77.4335","INCLINATION":"53.0514","MEAN_ELEMENT_THEORY":"SGP4","BSTAR":"0.00001436400000","FILE":"3300727","OBJECT_NAME":"STARLINK-2101","SEMIMAJOR_AXIS":"6925.316","PERIOD":"95.591","OBJECT_TYPE":"PAYLOAD","CENTER_NAME":"EARTH","MEAN_MOTION_DDOT":"0.0000000000000","LAUNCH_DATE":"2021-01-20","REV_AT_EPOCH":"5973","TLE_LINE1":"1 47381U 21005AJ  22045.76234864 -.00000068  00000-0  14364-4 0  9991","PERIAPSIS":"546.055","MEAN_MOTION_DOT":"-0.00000068","ECCENTRICITY":"0.00016250","RCS_SIZE":"LARGE","OBJECT_ID":"2021-005AJ"}];
